#aV2011  9  6  0  0   .00000000      96 DD+AD WGS84 FIT  NGA
## 1652 172800.00000000   900.00000000 55810  .0000000000000
+   31     2  3  4  5  6  7  8  9 10 11 12 13 14 15 16 17 18
+         19 20 21 22 23 24 25 26 27 28 29 30 31 32  0  0  0
+          0  0  0  0  0  0  0  0  0  0  0  0  0  0  0  0  0
+          0  0  0  0  0  0  0  0  0  0  0  0  0  0  0  0  0
+          0  0  0  0  0  0  0  0  0  0  0  0  0  0  0  0  0
++         0  0  0  0  0  0  0  0  0  0  0  0  0  0  0  0  0
++         0  0  0  0  0  0  0  0  0  0  0  0  0  0  0  0  0
++         0  0  0  0  0  0  0  0  0  0  0  0  0  0  0  0  0
++         0  0  0  0  0  0  0  0  0  0  0  0  0  0  0  0  0
++         0  0  0  0  0  0  0  0  0  0  0  0  0  0  0  0  0
%c cc cc ccc ccc cccc cccc cccc cccc ccccc ccccc ccccc ccccc
%c cc cc ccc ccc cccc cccc cccc cccc ccccc ccccc ccccc ccccc
%f  0.0000000  0.000000000  0.00000000000  0.000000000000000
%f  0.0000000  0.000000000  0.00000000000  0.000000000000000
%i    0    0    0    0      0      0      0      0         0
%i    0    0    0    0      0      0      0      0         0
/*      NGA, ST. LOUIS,MO.                                  
/*   EPHEMERIS COMPUTED FROM  3 DAYS OF DATA                
/* CCCCCCCCCCCCCCCCCCCCCCCCCCCCCCCCCCCCCCCCCCCCCCCCCCCCCCCCC
/* CCCCCCCCCCCCCCCCCCCCCCCCCCCCCCCCCCCCCCCCCCCCCCCCCCCCCCCCC
*  2011  9  6  5 30   .00000000                                                 
P  2  17897.757397  -5037.928107 -18710.394950    354.677266                    
V  2  -9157.111618  22434.000087 -15235.628756       .019167                    
P  3 -19771.887789  -4040.569527  16975.722185    764.536790                    
V  3 -12563.953906 -18673.732372 -18294.991429       .050236                    
P  4  12144.280861  10506.129588 -21343.926406    222.984902                    
V  4 -13035.070768  23326.743801   4449.550504       .112060                    
P  5  26525.312080  -1924.088888   1230.628414   -214.291858                    
V  5   1688.303872   2904.423536 -31452.819690      -.052866                    
P  6 -20062.608522  -8935.040046  15249.481310    -77.728300                    
V  6  -9128.104913 -16918.913952 -21879.746459       .093381                    
P  7  -3771.062021  23471.069204  11601.615109     25.412944                    
V  7  -8955.869553  11961.561896 -27358.332329       .018101                    
P  8   2631.900099  18340.490721  18828.663364      9.065562                    
V  8 -14004.988090  19475.919570 -17599.199249       .000706                    
P  9  14821.999851 -21212.403285   5477.500721    103.807943                    
V  9  -1598.255599   7765.605582  31238.263088       .023587                    
P 10  20154.279348  10119.391858 -14544.873952    -12.246212                    
V 10 -17938.758587   2374.533443 -23184.253835      -.013189                    
P 11 -13067.419896  20469.109598  10011.971754   -183.389700                    
V 11  -1618.694841 -14211.674032  26398.930414      -.033490                    
P 12  16324.406276 -11904.745867 -17140.954032     20.557810                    
V 12  21837.848802   1146.039828  20157.329193       .024390                    
P 13   1576.941190  22730.360142 -13718.744259    252.886647                    
V 13  -9238.745549 -14554.006350 -25509.366465      -.018063                    
P 14 -15076.324209 -21503.520968  -4311.142482    170.808443                    
V 14   -957.943127  -5924.027731  31493.998902       .019124                    
P 15  11710.474078 -10270.632365  21512.316445   -107.487121                    
V 15  15289.996767  22680.460631   2677.265774       .016344                    
P 16 -26497.746749   1980.503989   2890.507717   -196.105904                    
V 16  -3620.133542  -2019.811013 -31637.414210      -.021915                    
P 17  15941.406379  20865.029723  -4613.896200    176.299969                    
V 17    831.191205   6464.931360  30909.479433      -.015156                    
P 18  -4399.922938 -15738.576133  21312.736250    155.923776                    
V 18  26344.372355   -970.804503   4424.478086       .018844                    
P 19 -13892.478291   6293.520714  21727.927268   -180.815026                    
V 19 -12737.538652 -24532.685527   -679.822591      -.040126                    
P 20 -14277.260811  14132.661306 -17484.118543     52.593589                    
V 20 -22144.831335   -434.932420  17941.875525       .004867                    
P 21   -121.188123 -22309.048075  14379.034096   -169.572297                    
V 21  11152.985248 -14271.543907 -23340.081758      -.024986                    
P 22 -18058.726867 -11547.181468  15936.050251    144.808478                    
V 22  19906.381520  -2806.481022  20648.188359      -.002818                    
P 23  -5330.653237  17158.991638 -19418.747291    278.252300                    
V 23 -14162.607306 -20419.042330 -14496.784705      -.030179                    
P 24 -15626.590249  20954.020535   3655.207291    421.539711                    
V 24   -560.064303  -5746.388388  31223.564405       .031507                    
P 25   4111.646498 -15103.913338 -21481.023892     17.411139                    
V 25  27192.376681   -862.126732   5843.784077       .017947                    
P 26  16680.154527   3508.052992  19886.878458   -147.772689                    
V 26  11553.884380  23754.730075 -13108.507982      -.125534                    
P 27  16999.353267 -16303.760217  12539.287675    302.376423                    
V 27  -4733.780967  14364.439887  26824.045912       .038867                    
P 28  14654.629306  12776.489671  18734.895892     65.277935                    
V 28 -22590.084746    862.493359  17332.951480       .030674                    
P 29  -2463.264414 -22858.531378 -13270.470509    237.425906                    
V 29  10332.372247  13603.350731 -25178.603473       .032622                    
P 30  -1429.754642 -15448.732376 -21963.518410     88.734094                    
V 30  26708.334231  -3656.889755    846.227762      -.045159                    
P 31 -12953.027892  -6940.655880 -21926.149226    137.268369                    
V 31  13580.033647 -24788.130373     31.228993       .055893                    
P 32 -21603.606744   7897.057736 -12621.870269   -323.780847                    
V 32 -16480.465568  -3677.212227  25798.302209      -.067075                    
EOF
